NORAD_CAT_ID,OBJECT_NAME,OBJECT_TYPE,EPOCH,MEAN_MOTION,ECCENTRICITY,INCLINATION,RA_OF_ASC_NODE,ARG_OF_PERICENTER,MEAN_ANOMALY,BSTAR,MEAN_MOTION_DOT,MEAN_MOTION_DDOT,TLE_LINE0,TLE_LINE1,TLE_LINE2,SEMIMAJOR_AXIS,PERIOD,APOGEE,PERIGEE,DECAYED
55308.0,STARLINK-5292,PAYLOAD,2023-11-25 03:16:52,14.98330084,0.0002537,70.0001,311.2167,264.7291,95.3578,4.3381e-05,4.25e-06,0.0,0 STARLINK-5292,1 55308U 23010AR  23329.13671929  .00000425  00000-0  43381-4 0  9998,2 55308  70.0001 311.2167 0002537 264.7291  95.3578 14.98330084 48290,6950.193,96.107,573.821,570.294,0.0
55308.0,STARLINK-5292,PAYLOAD,2023-11-25 06:29:08,14.98330443,0.0002351,70.0007,310.8809,252.1627,107.9276,4.7695e-05,4.76e-06,0.0,0 STARLINK-5292,1 55308U 23010AR  23329.27023874  .00000476  00000-0  47695-4 0  9991,2 55308  70.0007 310.8809 0002351 252.1627 107.9276 14.98330443 49501,6950.192,96.107,573.691,570.423,0.0
55308.0,STARLINK-5292,PAYLOAD,2023-11-25 22:30:28,14.98330921,0.0002172,70.0011,309.1981,249.6658,110.4268,0.00011408,1.269e-05,0.0,0 STARLINK-5292,1 55308U 23010AR  23329.93783564  .00001269  00000-0  11408-3 0  9996,2 55308  70.0011 309.1981 0002172 249.6658 110.4268 14.98330921 49606,6950.19,96.107,573.565,570.545,0.0
55308.0,STARLINK-5292,PAYLOAD,2023-11-26 03:18:53,14.98332149,0.0002423,70.0007,308.6928,242.5589,117.5324,0.00010678,1.181e-05,0.0,0 STARLINK-5292,1 55308U 23010AR  23330.13811525  .00001181  00000-0  10678-3 0  9990,2 55308  70.0007 308.6928 0002423 242.5589 117.5324 14.98332149 48446,6950.186,96.107,573.735,570.367,0.0
55308.0,STARLINK-5292,PAYLOAD,2023-11-26 08:07:17,14.98326879,0.000243,70.0003,308.1849,272.9359,87.1522,0.00031197,3.631e-05,0.0,0 STARLINK-5292,1 55308U 23010AR  23330.33839322  .00003631  00000-0  31197-3 0  9998,2 55308  70.0003 308.1849 0002430 272.9359  87.1522 14.98326879 49669,6950.203,96.107,573.756,570.379,0.0
55308.0,STARLINK-5292,PAYLOAD,2023-11-27 03:20:56,14.98311183,0.0002482,70.0001,306.1667,255.1767,104.9117,-0.00024406,-3.002e-05,0.0,0 STARLINK-5292,1 55308U 23010AR  23331.13953803 -.00003002  00000-0 -24406-3 0  9997,2 55308  70.0001 306.1667 0002482 255.1767 104.9117 14.98311183 48597,6950.251,96.108,573.841,570.391,0.0
55308.0,STARLINK-5292,PAYLOAD,2023-11-27 08:09:20,14.98313624,0.0002448,70.0002,305.6617,272.8714,87.2165,-0.00019511,-2.419e-05,0.0,0 STARLINK-5292,1 55308U 23010AR  23331.33981871 -.00002419  00000-0 -19511-3 0  9997,2 55308  70.0002 305.6617 0002448 272.8714  87.2165 14.98313624 49811,6950.244,96.108,573.81,570.407,0.0
55308.0,STARLINK-5292,PAYLOAD,2023-11-27 22:34:32,14.98322937,0.000339,69.9987,304.1435,271.2638,88.8133,-9.7902e-05,-1.261e-05,0.0,0 STARLINK-5292,1 55308U 23010AR  23331.94065131 -.00001261  00000-0 -97902-4 0  9991,2 55308  69.9987 304.1435 0003390 271.2638  88.8133 14.98322937 49906,6950.215,96.107,574.436,569.724,0.0
55308.0,STARLINK-5292,PAYLOAD,2023-11-28 01:46:48,14.98327291,0.0002507,70.0006,303.8099,262.5157,97.5717,-9.0527e-06,-2.01e-06,0.0,0 STARLINK-5292,1 55308U 23010AR  23332.07416707 -.00000201  00000-0 -90527-5 0  9995,2 55308  70.0006 303.8099 0002507 262.5157  97.5717 14.98327291 48734,6950.201,96.107,573.809,570.324,0.0
55308.0,STARLINK-5292,PAYLOAD,2023-11-28 08:11:20,14.9833083,0.0002353,70.0008,303.1369,259.5705,100.5189,1.1717e-05,4.7e-07,0.0,0 STARLINK-5292,1 55308U 23010AR  23332.34120473  .00000047  00000-0  11717-4 0  9996,2 55308  70.0008 303.1369 0002353 259.5705 100.5189 14.98330830 49960,6950.19,96.107,573.691,570.42,0.0
55308.0,STARLINK-5292,PAYLOAD,2023-11-28 22:36:32,14.98325606,0.0003023,69.9992,301.6212,267.2302,92.8511,0.00021704,2.497e-05,0.0,0 STARLINK-5292,1 55308U 23010AR  23332.94204056  .00002497  00000-0  21704-3 0  9999,2 55308  69.9992 301.6212 0003023 267.2302  92.8511 14.98325606 50052,6950.206,96.107,574.173,569.97,0.0
55308.0,STARLINK-5292,PAYLOAD,2023-11-29 03:24:56,14.98326149,0.0002771,69.9999,301.1172,261.5311,98.5534,0.00025934,3.002e-05,0.0,0 STARLINK-5292,1 55308U 23010AR  23333.14231948  .00003002  00000-0  25934-3 0  9994,2 55308  69.9999 301.1172 0002771 261.5311  98.5534 14.98326149 48895,6950.205,96.107,573.996,570.144,0.0
55308.0,STARLINK-5292,PAYLOAD,2023-11-29 08:13:20,14.98333037,0.0002759,69.9997,300.6127,258.7147,101.3702,0.00028126,3.265e-05,0.0,0 STARLINK-5292,1 55308U 23010AR  23333.34259417  .00003265  00000-0  28126-3 0  9994,2 55308  69.9997 300.6127 0002759 258.7147 101.3702 14.98333037 48926,6950.183,96.107,573.966,570.131,0.0
55308.0,STARLINK-5292,PAYLOAD,2023-11-30 03:26:57,14.98334467,0.0002864,69.9998,298.593,252.6076,107.477,-5.1947e-05,-7.13e-06,0.0,0 STARLINK-5292,1 55308U 23010AR  23334.14372063 -.00000713  00000-0 -51947-4 0  9991,2 55308  69.9998 298.5930 0002864 252.6076 107.4770 14.98334467 49049,6950.179,96.107,574.035,570.054,0.0
55308.0,STARLINK-5292,PAYLOAD,2023-12-01 05:05:06,14.98331688,0.0002531,70.0007,295.8999,248.0869,112.0022,-0.00010496,-1.345e-05,0.0,0 STARLINK-5292,1 55308U 23010AR  23335.21188225 -.00001345  00000-0 -10496-3 0  9990,2 55308  70.0007 295.8999 0002531 248.0869 112.0022 14.98331688 49200,6950.188,96.107,573.812,570.294,0.0
55308.0,STARLINK-5292,PAYLOAD,2023-12-01 22:42:34,14.98330066,0.0002789,70.0001,294.0454,259.5349,100.5496,0.00010657,1.179e-05,0.0,0 STARLINK-5292,1 55308U 23010AR  23335.94623453  .00001179  00000-0  10657-3 0  9999,2 55308  70.0001 294.0454 0002789 259.5349 100.5496 14.98330066 50507,6950.193,96.107,573.996,570.119,0.0
55308.0,STARLINK-5292,PAYLOAD,2023-12-02 06:43:13,14.98345956,0.0002602,70.0006,293.2041,274.8097,85.2765,0.00027706,3.216e-05,0.0,0 STARLINK-5292,1 55308U 23010AR  23336.28002031  .00003216  00000-0  27706-3 0  9997,2 55308  70.0006 293.2041 0002602 274.8097  85.2765 14.98345956 49363,6950.144,96.106,573.817,570.2,0.0
55308.0,STARLINK-5292,PAYLOAD,2023-12-02 22:44:36,14.9832066,0.0002998,69.9995,291.5222,265.5237,94.5579,-0.00010436,-1.338e-05,0.0,0 STARLINK-5292,1 55308U 23010AR  23336.94764574 -.00001338  00000-0 -10436-3 0  9994,2 55308  69.9995 291.5222 0002998 265.5237  94.5579 14.98320660 50655,6950.222,96.108,574.17,570.003,0.0
55308.0,STARLINK-5292,PAYLOAD,2023-12-03 03:33:02,14.98302418,0.0002323,70.0025,291.0208,225.9463,134.1505,-0.00021194,-2.619e-05,0.0,0 STARLINK-5292,1 55308U 23010AR  23337.14794080 -.00002619  00000-0 -21194-3 0  9998,2 55308  70.0025 291.0208 0002323 225.9463 134.1505 14.98302418 49495,6950.278,96.109,573.758,570.529,0.0
55308.0,STARLINK-5292,PAYLOAD,2023-12-03 06:45:18,14.98304024,0.0002364,70.0011,290.682,253.0797,107.0103,-0.00017528,-2.182e-05,0.0,0 STARLINK-5292,1 55308U 23010AR  23337.28146129 -.00002182  00000-0 -17528-3 0  9999,2 55308  70.0011 290.6820 0002364 253.0797 107.0103 14.98304024 50706,6950.273,96.109,573.781,570.495,0.0
55308.0,STARLINK-5292,PAYLOAD,2023-12-04 03:35:02,14.98326928,0.0002431,70.0006,288.4918,255.6649,104.424,-0.00012545,-1.589e-05,0.0,0 STARLINK-5292,1 55308U 23010AR  23338.14932949 -.00001589  00000-0 -12545-3 0  9992,2 55308  70.0006 288.4918 0002431 255.6649 104.4240 14.98326928 49643,6950.202,96.107,573.757,570.378,0.0
55308.0,STARLINK-5292,PAYLOAD,2023-12-04 06:47:18,14.98329877,0.0002193,70.0011,288.1555,274.9277,85.1632,-0.00010623,-1.36e-05,0.0,0 STARLINK-5292,1 55308U 23010AR  23338.28284911 -.00001360  00000-0 -10623-3 0  9998,2 55308  70.0011 288.1555 0002193 274.9277  85.1632 14.98329877 50850,6950.193,96.107,573.582,570.534,0.0
55308.0,STARLINK-5292,PAYLOAD,2023-12-05 03:37:01,14.98329526,0.0002176,70.0002,285.9653,263.388,96.7031,0.00032263,3.759e-05,0.0,0 STARLINK-5292,1 55308U 23010AR  23339.15071615  .00003759  00000-0  32263-3 0  9996,2 55308  70.0002 285.9653 0002176 263.3880  96.7031 14.98329526 49790,6950.194,96.107,573.572,570.547,0.0
55308.0,STARLINK-5292,PAYLOAD,2023-12-05 06:49:17,14.98329906,0.0001908,70.0019,285.6282,268.3815,91.7126,0.00036151,4.223e-05,0.0,0 STARLINK-5292,1 55308U 23010AR  23339.28423556  .00004223  00000-0  36151-3 0  9992,2 55308  70.0019 285.6282 0001908 268.3815  91.7126 14.98329906 51007,6950.193,96.107,573.384,570.732,0.0
55308.0,STARLINK-5292,PAYLOAD,2023-12-06 03:39:04,14.98320902,0.0001802,70.0014,283.4415,277.035,83.0604,-2.8393e-05,-4.31e-06,0.0,0 STARLINK-5292,1 55308U 23010AR  23340.15213039 -.00000431  00000-0 -28393-4 0  9992,2 55308  70.0014 283.4415 0001802 277.0350  83.0604 14.98320902 49942,6950.221,96.108,573.338,570.834,0.0
55308.0,STARLINK-5292,PAYLOAD,2023-12-06 05:15:11,14.98333616,0.0002595,70.0,283.2735,265.9373,94.1489,4.5633e-05,4.52e-06,0.0,0 STARLINK-5292,1 55308U 23010AR  23340.21887846  .00000452  00000-0  45633-4 0  9999,2 55308  70.0000 283.2735 0002595 265.9373  94.1489 14.98333616 49952,6950.182,96.107,573.85,570.243,0.0
55308.0,STARLINK-5292,PAYLOAD,2023-12-06 19:40:25,14.98318693,0.0002015,70.0026,281.7573,271.8606,88.2323,-0.00056921,-6.876e-05,0.0,0 STARLINK-5292,1 55308U 23010AR  23340.81974402 -.00006876  00000-0 -56921-3 0  9999,2 55308  70.0026 281.7573 0002015 271.8606  88.2323 14.98318693 50046,6950.228,96.108,573.493,570.692,0.0
55308.0,STARLINK-5292,PAYLOAD,2023-12-07 05:17:12,14.9833537,0.0002565,69.9999,280.7476,268.8017,91.2848,-0.00021075,-2.607e-05,0.0,0 STARLINK-5292,1 55308U 23010AR  23341.22027987 -.00002607  00000-0 -21075-3 0  9992,2 55308  69.9999 280.7476 0002565 268.8017  91.2848 14.98335370 50109,6950.176,96.107,573.824,570.259,0.0
55308.0,STARLINK-5292,PAYLOAD,2023-12-07 06:53:20,14.98337141,0.0002832,69.9991,280.5784,272.2505,87.833,-0.00018982,-2.358e-05,0.0,0 STARLINK-5292,1 55308U 23010AR  23341.28703817 -.00002358  00000-0 -18982-3 0  9997,2 55308  69.9991 280.5784 0002832 272.2505  87.8330 14.98337141 51307,6950.171,96.107,574.004,570.068,0.0
55308.0,STARLINK-5292,PAYLOAD,2023-12-08 03:43:05,14.98314669,0.0002566,69.9996,278.3916,275.2686,84.818,0.00017238,1.964e-05,0.0,0 STARLINK-5292,1 55308U 23010AR  23342.15492186  .00001964  00000-0  17238-3 0  9991,2 55308  69.9996 278.3916 0002566 275.2686  84.8180 14.98314669 50243,6950.24,96.108,573.889,570.322,0.0
